[{"OBJECT_NAME":"METOP-B","OBJECT_ID":"2012-049A","EPOCH":"2026-03-09T20:49:00.301440","MEAN_MOTION":14.2144474,"ECCENTRICITY":0.0001197,"INCLINATION":98.6642,"RA_OF_ASC_NODE":122.2903,"ARG_OF_PERICENTER":264.5889,"MEAN_ANOMALY":95.5152,"EPHEMERIS_TYPE":0,"CLASSIFICATION_TYPE":"U","NORAD_CAT_ID":38771,"ELEMENT_SET_NO":999,"REV_AT_EPOCH":69915,"BSTAR":8.3719118e-5,"MEAN_MOTION_DOT":1.4e-6,"MEAN_MOTION_DDOT":0},{"OBJECT_NAME":"THOR ABLESTAR R\/B","OBJECT_ID":"1961-015C","EPOCH":"2026-03-09T21:24:40.762944","MEAN_MOTION":14.02700264,"ECCENTRICITY":0.00848347,"INCLINATION":66.7645,"RA_OF_ASC_NODE":308.2469,"ARG_OF_PERICENTER":337.3963,"MEAN_ANOMALY":22.3393,"EPHEMERIS_TYPE":0,"CLASSIFICATION_TYPE":"U","NORAD_CAT_ID":118,"ELEMENT_SET_NO":999,"REV_AT_EPOCH":30221,"BSTAR":0.00014229775,"MEAN_MOTION_DOT":1.47e-6,"MEAN_MOTION_DDOT":0}]
